#dP2019  9  5  0  0  0.00000000      96 __u+U ITR00 FIT  IAC
## 2069 345600.00000000   900.00000000 58731 0.0000000000000
+  105   C06C07C08C09C10C11C12C13C14C16C19C20C21C22C23C24C25
+        C26C27C28C29C30C32C33C34C35C36C37E01E02E03E04E05E07
+        E08E09E11E12E13E14E15E18E19E21E24E25E26E27E30E31E33
+        E36G01G02G03G04G05G06G07G08G09G10G11G12G13G14G15G16
+        G17G18G19G20G21G22G23G24G25G26G27G28G29G30G31G32R01
+        R02R03R05R07R08R09R11R12R13R14R15R16R17R18R19R20R21
+        R22R23R24  0  0  0  0  0  0  0  0  0  0  0  0  0  0
++         9  9  8  8  9  8  8  8  7  9  8  8  7  8  8  8  8
++         8  8  8  8  8  8  8  8  9 10  9  6  5  5  5  5  5
++         5  5  5  5  5  6  5  6  6  5  5  5  5  5  5  6  5
++         5  3  4  3  4  4  4  4  4  4  4  3  3  4  3  4  3
++         4  3  4  4  4  3  4  4  4  4  4  4  4  4  3  3  6
++         5  5  5  5  5  6  6  6  6  5  5  6  5  5  6  6  5
++         5  5  6  0  0  0  0  0  0  0  0  0  0  0  0  0  0
%c M  cc GPS ccc cccc cccc cccc cccc ccccc ccccc ccccc ccccc
%c cc cc ccc ccc cccc cccc cccc cccc ccccc ccccc ccccc ccccc
%f  0.0000000  0.000000000  0.00000000000  0.000000000000000
%f  0.0000000  0.000000000  0.00000000000  0.000000000000000
%i    0    0    0    0      0      0      0      0         0
%i    0    0    0    0      0      0      0      0         0
/*                                                          
/*   RSA / INFORMATION & ANALYSIS CENTER (IAC) OF MCC       
/*   ULTRA-RAPID DETERMINATION                              
/* PCV:IGS14_2062 OL/AL:FES2004  NONE     YN ORB:CoN CLK:CoN
*  2019 09 05  4 45  0.00000000
PC06 -22367.013812  35010.067114  -7928.205681    431.045572
PC07  -7569.673992  32454.349792 -25354.584182   -110.076474
PC08 -17232.633626  18001.700466  34004.742102     -1.620132
PC09 -12073.818521  34729.914785 -20712.360992    -56.720902
PC10   3171.602404  38490.866501 -16233.330300   -146.800895
PC11  19805.934165 -17406.511090  -9191.543434    173.938719
PC12  22636.397988    -14.326741  16440.162964   -240.926487
PC13  -1596.109262  23228.292539  35211.105020   -914.591496
PC14  14382.172644 -12537.196957 -20290.026673    506.215171
PC16 -19641.818109  35738.259706 -11031.742230   -876.682550
PC19  -4368.650250  26931.677140   5838.858194    190.097684
PC20 -13839.381442  14209.257595  19630.875878    -33.482339
PC21  15333.668497   7284.182697 -22129.537926    328.062912
PC22   7764.117758  24140.179745 -11610.250370    -65.794654
PC23 -16410.422387 -19567.227829  11276.377165   -936.268215
PC24  19279.560963  -4447.695422  19690.568028   -910.813104
PC25   1314.969758 -17183.285292  21949.332536   -337.971695
PC26  25414.169402   9630.685031   6397.880120    375.456257
PC27 -22746.697754   -676.216734 -16177.023174    184.307183
PC28  -7455.259343 -14039.202792 -22935.744136    178.195910
PC29 -11341.290442  19600.802093  16297.402915    114.112066
PC30 -24229.435285  13860.213965   -127.958085    187.220115
PC32 -15413.552872  -7184.282350  22138.392910   -918.315820
PC33   4262.351734 -26961.535988  -5850.319554   -361.231562
PC34  24169.517370 -13931.028343   -159.420524    -52.002400
PC35   7860.086287  13882.022371  22895.996963   -305.429431
PC36  -1857.823896  17062.381342 -21967.857312   -793.029431
PC37 -25130.752156 -10593.928785  -5876.366658 999999.999999
PE01  21107.767533  18061.494581  10214.300869   -683.376543
PE02 -21116.668206 -18024.520767 -10256.515790     77.371013
PE03 -14343.412103  -9643.246405  24032.545806   -207.327388
PE04  19859.232776 -11515.233956 -18683.470828   -358.994064
PE05   -372.773641 -25320.345003  15334.638586   -451.359742
PE07 -13746.496285  26106.863486   2290.761316   -260.038591
PE08 -19665.968573  11829.449524  18688.941936   6296.617228
PE09  13504.236531 -26256.755491  -2235.445383   6326.209589
PE11  15865.938198 -15014.095900 -19981.679826   5602.420559
PE12  28900.174656  -5359.938186  -3457.878518   6213.822760
PE13 -15945.380861  14981.823408  19934.789945    392.440391
PE14 -25349.684378   5595.252335 -16256.968490   -708.030453
PE15 -28793.033978   5702.779672   3804.426019    896.671836
PE18  20864.980383 -16581.582410   2219.399029   -802.396981
PE19  13094.088213  11617.497307 -23864.623528     -4.125744
PE21  11361.462889  25888.313021  -8747.709624   -553.144553
PE24   5128.743264 -18614.855900  22428.997338   5887.504697
PE25 -11297.570547 -25902.277591   8838.977193   1688.697226
PE26   6335.263773  15687.251646  24288.120782   4143.510843
PE27  -5133.282551  18489.564993 -22526.472850    393.824278
PE30 -18562.719849    289.881629 -23054.938371   4572.361445
PE31  18566.281379   -282.248133  23062.283166   -468.042693
PE33  24798.944505   6942.136534  14596.302334   -469.895680
PE36  -6281.137328 -15502.977782 -24420.639257    666.071841
PG01 -18326.841728 -13907.566428 -13747.230704   -118.567196
PG02  -2789.420978  15364.906070  22099.255951   -298.222581
PG03 -13328.321885 -20898.581883   9613.172948     -7.806044
PG04  11940.386882 -22716.711319  -5895.250042    121.892551
PG05   1398.558025  24739.776132   9147.607085     -1.147460
PG06 -18597.587661   7774.054422  17349.975552    -47.191840
PG07 -26050.786285  -6393.972461    -22.768198    -99.743690
PG08  -2184.713929 -17618.350891 -19654.201441     -5.311638
PG09 -18472.459315    223.545942  19040.778422    -23.414486
PG10  13649.794773  -6807.265845 -21667.618710    -41.160677
PG11 -14673.068522 -11880.387022 -19106.697025   -515.974204
PG12   9818.737385  23912.287793   6246.884057    207.170768
PG13  -8605.658922  20396.238298 -14741.437528    -46.030107
PG14  18172.141090 -19096.488680   2619.662643    -62.975351
PG15   5319.615608  17239.089087 -19655.633765   -289.217467
PG16   1794.219163 -24180.158473  10123.876302    -71.237237
PG17 -21061.458606  14841.337690  -5843.498006    119.700024
PG18 -10097.052249 -15741.514627 -19406.678852     83.305666
PG19 -20124.147871  17362.420900   -287.085683   -271.521535
PG20  17537.571561   3066.107887 -19861.702742    526.758627
PG21  26044.010911   1839.046431  -3497.969123   -124.250255
PG22 -11269.126079 -24011.177365   2374.920933   -751.563943
PG23 -11051.689585 -11242.834642  21708.199214   -168.554784
PG24  16473.365798  14400.054066 -15449.996914     -1.716676
PG25  15920.021719  13065.844269  16699.502685    -10.816676
PG26   7409.031734 -18095.865407  17873.864558     31.619198
PG27   9715.372684 -21782.960217 -11472.950807    -45.595207
PG28 -13341.464037   6403.743489 -21461.677407    763.073070
PG29  16532.057107   3120.911011  20523.129491    106.328116
PG30 -24280.475323   1554.689815 -10852.954727    -34.112403
PG31  17529.155600  -8610.305059  18193.927372     12.547575
PG32  20502.649889 -15388.570366  -6632.031934     45.387199
PR01 -11413.735330   1153.985205  22781.166142     49.255280
PR02  -9850.785153  20625.804006  11415.924033    386.584059
PR03  -2207.974545  24721.017067  -5951.687992      1.072597
PR05  11530.568531  -3820.635531 -22418.562185     35.133947
PR07   1882.952115 -24556.290307   6600.066797    -26.127797
PR08  -6624.297637 -14629.767653  19864.678807     15.829493
PR09   5074.259930 -10361.435665  22774.004755     89.007549
PR11 -19267.985702 -16745.853206   -647.699379    -78.311746
PR12 -18687.357898  -6454.751344 -16074.370693     58.874223
PR13  -6987.471141   8389.879668 -23062.317725    -27.979600
PR14   8329.446390  17831.921196 -16196.407036     42.676818
PR15  18954.718002  17065.952903   -153.395321    103.836148
PR16  18862.645876   5928.599837  16168.688104      4.979961
PR17  -4212.577938  12019.079223  22095.756307    257.654212
PR18  13267.687801   5697.451529  21023.295450      6.350882
PR19  23775.635393  -3065.832458   8728.247072    -52.096886
PR20  20389.699067 -11042.601728 -10586.672696   -389.501730
PR21   3550.291671 -11813.917311 -22337.254157    -70.405346
PR22 -15868.488079  -4171.632592 -19574.353822    -36.271440
PR23 -24495.936136   6391.552811  -3106.874581    251.852336
PR24 -18914.985989  11869.455514  12304.952009   -184.381802
EOF
